[{"OBJECT_NAME":"STARLINK-34382","OBJECT_ID":"2025-139D","EPOCH":"2026-03-03T12:13:13.471680","MEAN_MOTION":15.30217089,"ECCENTRICITY":8.91e-5,"INCLINATION":53.1622,"RA_OF_ASC_NODE":156.0478,"ARG_OF_PERICENTER":114.4505,"MEAN_ANOMALY":245.6589,"EPHEMERIS_TYPE":0,"CLASSIFICATION_TYPE":"U","NORAD_CAT_ID":64667,"ELEMENT_SET_NO":999,"REV_AT_EPOCH":3933,"BSTAR":0.0010552,"MEAN_MOTION_DOT":0.00031038,"MEAN_MOTION_DDOT":0},{"OBJECT_NAME":"STARLINK-34395","OBJECT_ID":"2025-139E","EPOCH":"2026-03-03T11:59:32.892000","MEAN_MOTION":15.30200649,"ECCENTRICITY":0.0001196,"INCLINATION":53.1598,"RA_OF_ASC_NODE":155.9866,"ARG_OF_PERICENTER":115.8835,"MEAN_ANOMALY":244.2289,"EPHEMERIS_TYPE":0,"CLASSIFICATION_TYPE":"U","NORAD_CAT_ID":64668,"ELEMENT_SET_NO":999,"REV_AT_EPOCH":3933,"BSTAR":0.0005048,"MEAN_MOTION_DOT":0.00014621,"MEAN_MOTION_DDOT":0},{"OBJECT_NAME":"STARLINK-34394","OBJECT_ID":"2025-139F","EPOCH":"2026-03-03T11:45:52.427232","MEAN_MOTION":15.30194555,"ECCENTRICITY":0.000135,"INCLINATION":53.1585,"RA_OF_ASC_NODE":155.9298,"ARG_OF_PERICENTER":82.9917,"MEAN_ANOMALY":277.1237,"EPHEMERIS_TYPE":0,"CLASSIFICATION_TYPE":"U","NORAD_CAT_ID":64669,"ELEMENT_SET_NO":999,"REV_AT_EPOCH":3933,"BSTAR":0.00072511,"MEAN_MOTION_DOT":0.00021174,"MEAN_MOTION_DDOT":0},{"OBJECT_NAME":"STARLINK-34287","OBJECT_ID":"2025-139G","EPOCH":"2026-03-03T11:36:45.286272","MEAN_MOTION":15.30211364,"ECCENTRICITY":0.0001125,"INCLINATION":53.1578,"RA_OF_ASC_NODE":155.8908,"ARG_OF_PERICENTER":96.1986,"MEAN_ANOMALY":263.9143,"EPHEMERIS_TYPE":0,"CLASSIFICATION_TYPE":"U","NORAD_CAT_ID":64670,"ELEMENT_SET_NO":999,"REV_AT_EPOCH":3933,"BSTAR":0.00083816,"MEAN_MOTION_DOT":0.00024555,"MEAN_MOTION_DDOT":0},{"OBJECT_NAME":"STARLINK-34365","OBJECT_ID":"2025-139H","EPOCH":"2026-03-03T12:08:40.027776","MEAN_MOTION":15.30199792,"ECCENTRICITY":0.0001117,"INCLINATION":53.1612,"RA_OF_ASC_NODE":156.0255,"ARG_OF_PERICENTER":97.5688,"MEAN_ANOMALY":262.5439,"EPHEMERIS_TYPE":0,"CLASSIFICATION_TYPE":"U","NORAD_CAT_ID":64671,"ELEMENT_SET_NO":999,"REV_AT_EPOCH":3939,"BSTAR":0.001463,"MEAN_MOTION_DOT":0.00043224,"MEAN_MOTION_DDOT":0},{"OBJECT_NAME":"STARLINK-34442","OBJECT_ID":"2025-139J","EPOCH":"2026-03-03T11:16:59.966400","MEAN_MOTION":15.30192283,"ECCENTRICITY":0.0001424,"INCLINATION":53.1597,"RA_OF_ASC_NODE":155.8049,"ARG_OF_PERICENTER":48.1089,"MEAN_ANOMALY":312.0033,"EPHEMERIS_TYPE":0,"CLASSIFICATION_TYPE":"U","NORAD_CAT_ID":64672,"ELEMENT_SET_NO":999,"REV_AT_EPOCH":3933,"BSTAR":0.0006332,"MEAN_MOTION_DOT":0.00018436,"MEAN_MOTION_DDOT":0},{"OBJECT_NAME":"STARLINK-34288","OBJECT_ID":"2025-139K","EPOCH":"2026-03-03T11:26:07.236960","MEAN_MOTION":15.30192947,"ECCENTRICITY":0.0001502,"INCLINATION":53.1589,"RA_OF_ASC_NODE":155.843,"ARG_OF_PERICENTER":64.7132,"MEAN_ANOMALY":295.4024,"EPHEMERIS_TYPE":0,"CLASSIFICATION_TYPE":"U","NORAD_CAT_ID":64673,"ELEMENT_SET_NO":999,"REV_AT_EPOCH":3933,"BSTAR":0.00094691,"MEAN_MOTION_DOT":0.00027785,"MEAN_MOTION_DDOT":0},{"OBJECT_NAME":"STARLINK-34539","OBJECT_ID":"2025-139L","EPOCH":"2026-03-03T11:12:26.318592","MEAN_MOTION":15.3019538,"ECCENTRICITY":0.0001219,"INCLINATION":53.1596,"RA_OF_ASC_NODE":155.7815,"ARG_OF_PERICENTER":67.4625,"MEAN_ANOMALY":292.6505,"EPHEMERIS_TYPE":0,"CLASSIFICATION_TYPE":"U","NORAD_CAT_ID":64674,"ELEMENT_SET_NO":999,"REV_AT_EPOCH":3923,"BSTAR":0.00057253,"MEAN_MOTION_DOT":0.00016633,"MEAN_MOTION_DDOT":0},{"OBJECT_NAME":"STARLINK-34590","OBJECT_ID":"2025-139M","EPOCH":"2026-03-03T10:49:48.354240","MEAN_MOTION":15.30197572,"ECCENTRICITY":0.0001019,"INCLINATION":53.1601,"RA_OF_ASC_NODE":156.3933,"ARG_OF_PERICENTER":338.8396,"MEAN_ANOMALY":21.2562,"EPHEMERIS_TYPE":0,"CLASSIFICATION_TYPE":"U","NORAD_CAT_ID":64675,"ELEMENT_SET_NO":999,"REV_AT_EPOCH":3932,"BSTAR":0.00067131,"MEAN_MOTION_DOT":0.00019574,"MEAN_MOTION_DDOT":0},{"OBJECT_NAME":"STARLINK-34573","OBJECT_ID":"2025-139N","EPOCH":"2026-03-03T10:58:45.656832","MEAN_MOTION":15.30214191,"ECCENTRICITY":0.0001031,"INCLINATION":53.1606,"RA_OF_ASC_NODE":155.7206,"ARG_OF_PERICENTER":41.5451,"MEAN_ANOMALY":318.5628,"EPHEMERIS_TYPE":0,"CLASSIFICATION_TYPE":"U","NORAD_CAT_ID":64676,"ELEMENT_SET_NO":999,"REV_AT_EPOCH":3933,"BSTAR":0.00092667,"MEAN_MOTION_DOT":0.00027199,"MEAN_MOTION_DDOT":0},{"OBJECT_NAME":"STARLINK-34605","OBJECT_ID":"2025-139P","EPOCH":"2026-03-03T11:54:57.293280","MEAN_MOTION":15.30193863,"ECCENTRICITY":0.000119,"INCLINATION":53.1606,"RA_OF_ASC_NODE":145.3283,"ARG_OF_PERICENTER":62.015,"MEAN_ANOMALY":298.0971,"EPHEMERIS_TYPE":0,"CLASSIFICATION_TYPE":"U","NORAD_CAT_ID":64677,"ELEMENT_SET_NO":999,"REV_AT_EPOCH":3948,"BSTAR":0.00091263,"MEAN_MOTION_DOT":0.00026762,"MEAN_MOTION_DDOT":0},{"OBJECT_NAME":"STARLINK-34525","OBJECT_ID":"2025-139Q","EPOCH":"2026-03-03T12:16:15.716064","MEAN_MOTION":15.30212417,"ECCENTRICITY":8.23e-5,"INCLINATION":53.162,"RA_OF_ASC_NODE":156.0551,"ARG_OF_PERICENTER":102.6735,"MEAN_ANOMALY":257.4358,"EPHEMERIS_TYPE":0,"CLASSIFICATION_TYPE":"U","NORAD_CAT_ID":64678,"ELEMENT_SET_NO":999,"REV_AT_EPOCH":3933,"BSTAR":0.00085715,"MEAN_MOTION_DOT":0.00025123,"MEAN_MOTION_DDOT":0},{"OBJECT_NAME":"STARLINK-34489","OBJECT_ID":"2025-139R","EPOCH":"2026-03-03T12:07:08.245920","MEAN_MOTION":15.30220631,"ECCENTRICITY":0.0001226,"INCLINATION":53.1606,"RA_OF_ASC_NODE":156.0169,"ARG_OF_PERICENTER":60.652,"MEAN_ANOMALY":299.4603,"EPHEMERIS_TYPE":0,"CLASSIFICATION_TYPE":"U","NORAD_CAT_ID":64679,"ELEMENT_SET_NO":999,"REV_AT_EPOCH":3933,"BSTAR":0.001216,"MEAN_MOTION_DOT":0.00035853,"MEAN_MOTION_DDOT":0},{"OBJECT_NAME":"STARLINK-34502","OBJECT_ID":"2025-139S","EPOCH":"2026-03-03T11:06:21.123072","MEAN_MOTION":15.30189625,"ECCENTRICITY":0.0001718,"INCLINATION":53.1605,"RA_OF_ASC_NODE":155.7527,"ARG_OF_PERICENTER":45.1875,"MEAN_ANOMALY":314.9265,"EPHEMERIS_TYPE":0,"CLASSIFICATION_TYPE":"U","NORAD_CAT_ID":64680,"ELEMENT_SET_NO":999,"REV_AT_EPOCH":3933,"BSTAR":0.0002424,"MEAN_MOTION_DOT":6.824e-5,"MEAN_MOTION_DDOT":0},{"OBJECT_NAME":"STARLINK-34553","OBJECT_ID":"2025-139T","EPOCH":"2026-03-03T10:57:14.510016","MEAN_MOTION":15.3020347,"ECCENTRICITY":0.0001255,"INCLINATION":53.1611,"RA_OF_ASC_NODE":155.7113,"ARG_OF_PERICENTER":60.2823,"MEAN_ANOMALY":299.8302,"EPHEMERIS_TYPE":0,"CLASSIFICATION_TYPE":"U","NORAD_CAT_ID":64681,"ELEMENT_SET_NO":999,"REV_AT_EPOCH":3933,"BSTAR":0.00055978,"MEAN_MOTION_DOT":0.00016258,"MEAN_MOTION_DDOT":0},{"OBJECT_NAME":"STARLINK-34551","OBJECT_ID":"2025-139U","EPOCH":"2026-03-03T11:59:30.674976","MEAN_MOTION":15.30187671,"ECCENTRICITY":0.0001406,"INCLINATION":53.1607,"RA_OF_ASC_NODE":145.3351,"ARG_OF_PERICENTER":91.014,"MEAN_ANOMALY":269.1022,"EPHEMERIS_TYPE":0,"CLASSIFICATION_TYPE":"U","NORAD_CAT_ID":64682,"ELEMENT_SET_NO":999,"REV_AT_EPOCH":3948,"BSTAR":0.00047313,"MEAN_MOTION_DOT":0.00013674,"MEAN_MOTION_DDOT":0}]
