STARLINK-34382          
1 64667U 25139D   26062.50918370  .00031038  00000+0  10552-2 0  9997
2 64667  53.1622 156.0478 0000891 114.4505 245.6589 15.30217089 39332
STARLINK-34395          
1 64668U 25139E   26062.49968625  .00014621  00000+0  50480-3 0  9998
2 64668  53.1598 155.9866 0001196 115.8835 244.2289 15.30200649 39330
STARLINK-34394          
1 64669U 25139F   26062.49019013  .00021174  00000+0  72511-3 0  9997
2 64669  53.1585 155.9298 0001350  82.9917 277.1237 15.30194555 39339
STARLINK-34287          
1 64670U 25139G   26062.48385748  .00024555  00000+0  83816-3 0  9995
2 64670  53.1578 155.8908 0001125  96.1986 263.9143 15.30211364 39330
STARLINK-34365          
1 64671U 25139H   26062.50601884  .00043224  00000+0  14630-2 0  9992
2 64671  53.1612 156.0255 0001117  97.5688 262.5439 15.30199792 39392
STARLINK-34442          
1 64672U 25139J   26062.47013850  .00018436  00000+0  63320-3 0  9997
2 64672  53.1597 155.8049 0001424  48.1089 312.0033 15.30192283 39334
STARLINK-34288          
1 64673U 25139K   26062.47647265  .00027785  00000+0  94691-3 0  9993
2 64673  53.1589 155.8430 0001502  64.7132 295.4024 15.30192947 39331
STARLINK-34539          
1 64674U 25139L   26062.46697128  .00016633  00000+0  57253-3 0  9999
2 64674  53.1596 155.7815 0001219  67.4625 292.6505 15.30195380 39234
STARLINK-34590          
1 64675U 25139M   26062.45125410  .00019574  00000+0  67131-3 0  9992
2 64675  53.1601 156.3933 0001019 338.8396  21.2562 15.30197572 39322
STARLINK-34573          
1 64676U 25139N   26062.45747288  .00027199  00000+0  92667-3 0  9990
2 64676  53.1606 155.7206 0001031  41.5451 318.5628 15.30214191 39331
STARLINK-34605          
1 64677U 25139P   26062.49649645  .00026762  00000+0  91263-3 0  9999
2 64677  53.1606 145.3283 0001190  62.0150 298.0971 15.30193863 39483
STARLINK-34525          
1 64678U 25139Q   26062.51129301  .00025123  00000+0  85715-3 0  9990
2 64678  53.1620 156.0551 0000823 102.6735 257.4358 15.30212417 39338
STARLINK-34489          
1 64679U 25139R   26062.50495655  .00035853  00000+0  12160-2 0  9992
2 64679  53.1606 156.0169 0001226  60.6520 299.4603 15.30220631 39337
STARLINK-34502          
1 64680U 25139S   26062.46274448  .00006824  00000+0  24240-3 0  9993
2 64680  53.1605 155.7527 0001718  45.1875 314.9265 15.30189625 39333
STARLINK-34553          
1 64681U 25139T   26062.45641794  .00016258  00000+0  55978-3 0  9999
2 64681  53.1611 155.7113 0001255  60.2823 299.8302 15.30203470 39337
STARLINK-34551          
1 64682U 25139U   26062.49966059  .00013674  00000+0  47313-3 0  9991
2 64682  53.1607 145.3351 0001406  91.0140 269.1022 15.30187671 39483
